ISS (ZARYA)             
1 25544U 98067A   26091.87535882  .00008601  00000+0  16573-3 0  9993
2 25544  51.6331 317.7347 0006236 261.1612  98.8670 15.48704825559921
POISK                   
1 36086U 09060A   26091.87535882  .00008601  00000+0  16573-3 0  9991
2 36086  51.6331 317.7347 0006236 261.1612  98.8670 15.48704825559586
CSS (TIANHE)            
1 48274U 21035A   26091.36022109  .00024066  00000+0  27286-3 0  9992
2 48274  41.4670  70.0996 0003721  85.9086 274.2179 15.61804306281152
ISS (NAUKA)             
1 49044U 21066A   26091.87535882  .00008601  00000+0  16573-3 0  9999
2 49044  51.6331 317.7347 0006236 261.1612  98.8670 15.48704825559629
FREGAT DEB              
1 49271U 11037PF  26091.40451252  .00007093  00000+0  10238-1 0  9999
2 49271  51.6434 232.5447 0958506 111.4864 259.0863 12.40826791215510
CSS (WENTIAN)           
1 53239U 22085A   26091.36022109  .00024066  00000+0  27286-3 0  9995
2 53239  41.4670  70.0996 0003721  85.9086 274.2179 15.61804306281159
CSS (MENGTIAN)          
1 54216U 22143A   26091.36022109  .00024066  00000+0  27286-3 0  9996
2 54216  41.4670  70.0996 0003721  85.9086 274.2179 15.61804306281155
TIANZHOU-9              
1 64786U 25149A   26091.36022109  .00024066  00000+0  27286-3 0  9998
2 64786  41.4670  70.0996 0003721  85.9086 274.2179 15.61804306281158
PROGRESS-MS 32          
1 65586U 25204A   26091.87535882  .00008601  00000+0  16573-3 0  9996
2 65586  51.6331 317.7347 0006236 261.1612  98.8670 15.48704825554500
YOTSUBA-KULOVER         
1 65941U 98067XN  26091.94332328  .00519435  12115-3  12849-2 0  9993
2 65941  51.6161 295.5478 0007166 248.8797 111.1445 15.95323178 27192
BOTAN                   
1 65943U 98067XQ  26091.95735509  .00479447  10262-3  12676-2 0  9991
2 65943  51.6174 295.6695 0007341 243.5606 116.4648 15.94088252 27199
HRC MONOBLOCK CAMERA    
1 66052U 98067XR  26091.96657712  .00057662  00000+0  58260-3 0  9999
2 66052  51.6270 307.8382 0003818 206.2163 153.8640 15.64748545 26030
